ONEWEB-0319             
1 49105U 21075AG  25361.63359777  .00000067  00000+0  13911-3 0  9998
2 49105  87.9093  39.9802 0001854 111.1199 249.0131 13.17647386211010
ONEWEB-0323             
1 49106U 21075AH  25361.81211941  .00000133  00000+0  33399-3 0  9995
2 49106  87.8932  24.6825 0002072 112.1879 247.9470 13.12443109212079
ONEWEB-0329             
1 49107U 21075AJ  25361.33830211  .00000092  00000+0  20485-3 0  9996
2 49107  87.9094  40.0402 0001773 102.8610 257.2720 13.17648933210953
ONEWEB-0330             
1 49108U 21075AK  25361.56693505  .00000037  00000+0  61167-4 0  9997
2 49108  87.9096  40.0004 0001543 100.6133 259.5172 13.17647862211020
ONEWEB-0292             
1 49186U 21083A   25361.68978396  .00000038  00000+0  70153-4 0  9995
2 49186  87.8970 354.3415 0001861  92.2899 267.8443 13.13468058208417
ONEWEB-0303             
1 49187U 21083B   25361.74726370  .00000054  00000+0  10511-3 0  9995
2 49187  87.9175   9.5011 0001874  95.7025 264.4321 13.18687066207380
ONEWEB-0306             
1 49188U 21083C   25360.97859809  .00000086  00000+0  18527-3 0  9994
2 49188  87.9173   9.6385 0001663  84.1499 275.9823 13.18687506207324
ONEWEB-0307             
1 49189U 21083D   25361.45533213  .00000075  00000+0  17062-3 0  9998
2 49189  87.8970 354.3791 0001758  87.8335 272.2995 13.13470552208387
